1 41328U 16007A   18209.07259587  .00000042  00000-0  00000-0 0  9991
2 41328  54.8377 203.8656 0024255 219.8062 140.0171  2.00561724 18101
1 41328U 16007A   18210.06975744  .00000044  00000-0  00000+0 0  9993
2 41328  54.8376 203.8259 0024277 219.8107 140.0087  2.00561638 18125
1 41328U 16007A   18210.56833773  .00000046  00000-0  00000-0 0  9996
2 41328  54.8376 203.8061 0024285 219.8148 140.0030  2.00561631 18132
1 41328U 16007A   18211.06691932  .00000050  00000-0  00000+0 0  9995
2 41328  54.8376 203.7862 0024293 219.8164 140.0003  2.00561607 18141
1 41328U 16007A   18211.56550094  .00000053  00000-0  00000-0 0  9997
2 41328  54.8375 203.7664 0024298 219.8142 140.0017  2.00561599 18157
1 41328U 16007A   18211.56550141  .00000053  00000-0  00000+0 0  9999
2 41328  54.8375 203.7664 0024297 219.8141 140.0019  2.00561586 18153
1 41328U 16007A   18212.06408396  .00000058  00000-0  00000+0 0  9994
2 41328  54.8375 203.7466 0024300 219.8102 140.0055  2.00561566 18164
1 41328U 16007A   18212.56266641  .00000062  00000-0  00000-0 0  9990
2 41328  54.8375 203.7267 0024306 219.8080 140.0077  2.00561565 18178
1 41328U 16007A   18212.56266719  .00000062  00000-0  00000+0 0  9995
2 41328  54.8375 203.7267 0024300 219.8113 140.0045  2.00561553 18171
1 41328U 16007A   18213.06125125  .00000067  00000-0  00000+0 0  9991
2 41328  54.8375 203.7069 0024312 219.8018 140.0145  2.00561509 18181
1 41328U 16007A   18213.55983550  .00000072  00000-0  00000+0 0  9995
2 41328  54.8375 203.6871 0024312 219.7938 140.0233  2.00561485 18193
1 41328U 16007A   18213.55983550  .00000072  00000-0  00000-0 0  9996
2 41328  54.8375 203.6871 0024312 219.7938 140.0233  2.00561485 18193
1 41328U 16007A   18214.55700542  .00000082  00000-0  00000-0 0  9996
2 41328  54.8374 203.6474 0024318 219.7810 140.0385  2.00561441 18219
1 41328U 16007A   18215.05559156  .00000086  00000-0  00000+0 0  9998
2 41328  54.8374 203.6275 0024325 219.7825 140.0385  2.00561394 18220
1 41328U 16007A   18215.55417756  .00000089  00000-0  00000+0 0  9995
2 41328  54.8374 203.6077 0024327 219.7618 140.0607  2.00561341 18232
1 41328U 16007A   18215.55417757  .00000089  00000-0  00000+0 0  9996
2 41328  54.8374 203.6077 0024328 219.7773 140.0451  2.00561352 18234
1 41328U 16007A   18216.55134719  .00000093  00000-0  00000-0 0  9997
2 41328  54.8373 203.5680 0024338 219.7694 140.0554  2.00561328 18254
1 41328U 16007A   18217.04993204  .00000093  00000-0  00000+0 0  9993
2 41328  54.8372 203.5481 0024341 219.7668 140.0587  2.00561292 18264
1 41328U 16007A   18217.04993204  .00000093  00000-0  00000-0 0  9994
2 41328  54.8372 203.5481 0024341 219.7668 140.0587  2.00561292 18264
1 41328U 16007A   18217.54851620  .00000092  00000-0  00000+0 0  9992
2 41328  54.8372 203.5283 0024350 219.7701 140.0556  2.00561266 18270
1 41328U 16007A   18217.54851620  .00000092  00000-0  00000-0 0  9993
2 41328  54.8372 203.5283 0024350 219.7701 140.0556  2.00561266 18270
1 41328U 16007A   18218.54568224  .00000086  00000-0  00000-0 0  9992
2 41328  54.8371 203.4886 0024358 219.7714 140.0531  2.00561209 18291
1 41328U 16007A   18219.04426413  .00000082  00000-0  00000+0 0  9996
2 41328  54.8370 203.4687 0024363 219.7721 140.0508  2.00561181 18308
1 41328U 16007A   18219.54284518  .00000076  00000-0  00000-0 0  9993
2 41328  54.8370 203.4489 0024369 219.7732 140.0476  2.00561155 18312
1 41328U 16007A   18220.04142504  .00000069  00000-0  00000+0 0  9999
2 41328  54.8370 203.4290 0024371 219.7652 140.0530  2.00561140 18322
1 41328U 16007A   18220.54000529  .00000062  00000-0  00000-0 0  9998
2 41328  54.8369 203.4092 0024378 219.7721 140.0429  2.00561102 18330
1 41328U 16007A   18221.03858459  .00000055  00000-0  00000+0 0  9997
2 41328  54.8369 203.3893 0024382 219.7712 140.0403  2.00561088 18349
1 41328U 16007A   18221.53716362  .00000048  00000-0  00000+0 0  9990
2 41328  54.8368 203.3695 0024379 219.7636 140.0445  2.00561076 18353
1 41328U 16007A   18223.53148333  .00000027  00000-0  00000-0 0  9997
2 41328  54.8367 203.2901 0024381 219.7332 140.0623  2.00561002 18398
1 41328U 16007A   18223.53148377  .00000027  00000-0  00000-0 0  9995
2 41328  54.8367 203.2901 0024384 219.7346 140.0609  2.00560993 18398
1 41328U 16007A   18224.03006477  .00000024  00000-0  00000-0 0  9992
2 41328  54.8367 203.2702 0024381 219.7194 140.0742  2.00560990 18402
1 41328U 16007A   18225.52581562  .00000026  00000-0  00000-0 0  9992
2 41328  54.8366 203.2107 0024391 219.6961 140.0952  2.00560941 18434
1 41328U 16007A   18226.52298771  .00000032  00000-0  00000-0 0  9997
2 41328  54.8366 203.1710 0024393 219.6729 140.1199  2.00560888 18453
1 41328U 16007A   18227.02157258  .00000036  00000-0  00000+0 0  9990
2 41328  54.8365 203.1511 0024411 219.6734 140.1206  2.00560928 18463
1 41328U 16007A   18227.52016019  .00000040  00000-0  00000-0 0  9990
2 41328  54.8365 203.1313 0024412 219.6634 140.1322  2.00560896 18477
1 41328U 16007A   18228.01874750  .00000044  00000-0  00000+0 0  9992
2 41328  54.8365 203.1114 0024411 219.6544 140.1430  2.00560883 18482
1 41328U 16007A   18228.51733443  .00000047  00000-0  00000-0 0  9994
2 41328  54.8364 203.0916 0024410 219.6461 140.1530  2.00560885 18491
1 41328U 16007A   18229.01592380  .00000049  00000-0  00000+0 0  9994
2 41328  54.8364 203.0718 0024396 219.6228 140.1781  2.00560805 18507
1 41328U 16007A   18230.01309530  .00000049  00000-0  00000+0 0  9999
2 41328  54.8363 203.0321 0024404 219.6066 140.1967  2.00560843 18526
1 41328U 16007A   18230.51168079  .00000048  00000-0  00000-0 0  9995
2 41328  54.8362 203.0123 0024409 219.6127 140.1912  2.00560849 18535
1 41328U 16007A   18231.01026575  .00000045  00000-0  00000+0 0  9991
2 41328  54.8362 202.9925 0024412 219.5932 140.2111  2.00560849 18543
1 41328U 16007A   18231.01026575  .00000045  00000-0  00000-0 0  9992
2 41328  54.8362 202.9925 0024412 219.5932 140.2111  2.00560849 18543
1 41328U 16007A   18231.50885167  .00000042  00000-0  00000+0 0  9992
2 41328  54.8361 202.9726 0024412 219.5818 140.2224  2.00560803 18550
1 41328U 16007A   18231.50885167  .00000042  00000-0  00000-0 0  9993
2 41328  54.8361 202.9726 0024412 219.5818 140.2224  2.00560803 18550
1 41328U 16007A   18232.50602068  .00000033  00000-0  00000+0 0  9990
2 41328  54.8360 202.9329 0024415 219.5517 140.2512  2.00560754 18574
1 41328U 16007A   18232.50602068  .00000033  00000-0  00000-0 0  9991
2 41328  54.8360 202.9329 0024415 219.5517 140.2512  2.00560754 18574
1 41328U 16007A   18234.00177059  .00000018  00000-0  00000-0 0  9998
2 41328  54.8358 202.8735 0024413 219.5017 140.2971  2.00560710 18609
1 41328U 16007A   18234.99893645  .00000010  00000-0  00000+0 0  9993
2 41328  54.8358 202.8338 0024415 219.4757 140.3198  2.00560688 18628
1 41328U 16007A   18234.99893691  .00000010  00000-0  00000+0 0  9994
2 41328  54.8358 202.8338 0024422 219.4670 140.3284  2.00560666 18622
1 41328U 16007A   18235.49751995  .00000007  00000-0  00000-0 0  9997
2 41328  54.8357 202.8140 0024424 219.4490 140.3447  2.00560648 18636
1 41328U 16007A   18235.99610337  .00000005  00000-0  00000+0 0  9993
2 41328  54.8357 202.7942 0024428 219.4340 140.3581  2.00560623 18646
1 41328U 16007A   18236.49468605  .00000005  00000-0  00000-0 0  9999
2 41328  54.8356 202.7743 0024436 219.4257 140.3649  2.00560628 18651
1 41328U 16007A   18236.99327136  .00000005  00000-0  00000-0 0  9997
2 41328  54.8355 202.7545 0024429 219.3931 140.3965  2.00560558 18664
1 41328U 16007A   18237.99043972  .00000009  00000-0  00000+0 0  9994
2 41328  54.8354 202.7149 0024440 219.3840 140.4040  2.00560554 18688
1 41328U 16007A   18237.99043972  .00000009  00000-0  00000-0 0  9995
2 41328  54.8354 202.7149 0024440 219.3840 140.4040  2.00560554 18688
1 41328U 16007A   18238.48902486  .00000012  00000-0  00000-0 0  9998
2 41328  54.8354 202.6951 0024438 219.3678 140.4201  2.00560546 18695
1 41328U 16007A   18239.48619757  .00000020  00000-0  00000+0 0  9993
2 41328  54.8353 202.6554 0024444 219.3558 140.4330  2.00560511 18715
1 41328U 16007A   18239.98478499  .00000025  00000-0  00000+0 0  9999
2 41328  54.8352 202.6356 0024446 219.3295 140.4604  2.00560471 18724
1 41328U 16007A   18240.48337339  .00000030  00000-0  00000-0 0  9990
2 41328  54.8351 202.6158 0024447 219.3171 140.4743  2.00560432 18739
1 41328U 16007A   18240.98196208  .00000035  00000-0  00000+0 0  9997
2 41328  54.8351 202.5960 0024441 219.2945 140.4988  2.00560403 18741
1 41328U 16007A   18241.48055072  .00000039  00000-0  00000+0 0  9990
2 41328  54.8350 202.5762 0024443 219.2818 140.5136  2.00560382 18754
1 41328U 16007A   18241.48055072  .00000039  00000-0  00000-0 0  9991
2 41328  54.8350 202.5762 0024443 219.2818 140.5136  2.00560382 18754
1 41328U 16007A   18242.47773020  .00000047  00000-0  00000-0 0  9990
2 41328  54.8349 202.5365 0024440 219.2432 140.5569  2.00560300 18772
1 41328U 16007A   18242.97631860  .00000050  00000-0  00000+0 0  9993
2 41328  54.8349 202.5167 0024439 219.2265 140.5759  2.00560310 18787
1 41328U 16007A   18243.47490850  .00000052  00000-0  00000-0 0  9994
2 41328  54.8348 202.4968 0024442 219.2147 140.5898  2.00560261 18797
1 41328U 16007A   18243.97349698  .00000053  00000-0  00000+0 0  9992
2 41328  54.8347 202.4770 0024444 219.2017 140.6047  2.00560245 18806
1 41328U 16007A   18244.47208609  .00000053  00000-0  00000-0 0  9995
2 41328  54.8347 202.4572 0024447 219.1952 140.6126  2.00560194 18818
1 41328U 16007A   18244.97067404  .00000052  00000-0  00000+0 0  9994
2 41328  54.8346 202.4373 0024449 219.1889 140.6200  2.00560181 18827
1 41328U 16007A   18245.46926054  .00000049  00000-0  00000-0 0  9991
2 41328  54.8345 202.4175 0024451 219.1725 140.6368  2.00560157 18837
1 41328U 16007A   18245.96784611  .00000046  00000-0  00000+0 0  9993
2 41328  54.8344 202.3977 0024449 219.1635 140.6457  2.00560164 18840
